{
  "type": "FeatureCollection",
  "features": [
    {
      "type": "Feature",
      "properties": {
        "norad_id": 33901,
        "name": "COSMOS 2251 DEB",
        "group": "cosmos-2251-debris",
        "lat": 60.96984540385947,
        "lon": 176.53979123173232,
        "alt_km": 494.1892601100135,
        "timestamp": "2025-12-22T16:55:17.857668+00:00",
        "meta_object_name": "COSMOS 2251 DEB",
        "meta_object_id": "1993-036DE",
        "meta_epoch": "2025-12-21T19:50:28.012704",
        "meta_mean_motion": 15.16810957,
        "meta_eccentricity": 0.00301292,
        "meta_inclination": 73.7747,
        "meta_ra_of_asc_node": 30.0486,
        "meta_arg_of_pericenter": 161.1371,
        "meta_mean_anomaly": 199.0947,
        "meta_ephemeris_type": 0,
        "meta_classification_type": "U",
        "meta_norad_cat_id": 33901,
        "meta_element_set_no": 999,
        "meta_rev_at_epoch": 89651,
        "meta_bstar": 0.0023106134,
        "meta_mean_motion_dot": 0.00046207,
        "meta_mean_motion_ddot": 0,
        "tle_line1": "1 33901U 93036DE  25355.82671311  .00046207  00000+0  23106-2 0  9998",
        "tle_line2": "2 33901  73.7747  30.0486 0030129 161.1371 199.0947 15.16810957896510"
      },
      "geometry": {
        "type": "Point",
        "coordinates": [
          176.53979123173232,
          60.96984540385947
        ]
      }
    },
    {
      "type": "Feature",
      "properties": {
        "norad_id": 33905,
        "name": "COSMOS 2251 DEB",
        "group": "cosmos-2251-debris",
        "lat": 13.436379921650506,
        "lon": 114.23919153281237,
        "alt_km": 735.0964662426677,
        "timestamp": "2025-12-22T16:55:17.857678+00:00",
        "meta_object_name": "COSMOS 2251 DEB",
        "meta_object_id": "1993-036DJ",
        "meta_epoch": "2025-12-22T02:51:33.297696",
        "meta_mean_motion": 14.35416308,
        "meta_eccentricity": 0.00582858,
        "meta_inclination": 73.8867,
        "meta_ra_of_asc_node": 299.2833,
        "meta_arg_of_pericenter": 186.7926,
        "meta_mean_anomaly": 192.7216,
        "meta_ephemeris_type": 0,
        "meta_classification_type": "U",
        "meta_norad_cat_id": 33905,
        "meta_element_set_no": 999,
        "meta_rev_at_epoch": 87822,
        "meta_bstar": 0.00050394638,
        "meta_mean_motion_dot": 1.448e-05,
        "meta_mean_motion_ddot": 0,
        "tle_line1": "1 33905U 93036DJ  25356.11913539  .00001448  00000+0  50395-3 0  9995",
        "tle_line2": "2 33905  73.8867 299.2833 0058285 186.7926 192.7216 14.35416308878224"
      },
      "geometry": {
        "type": "Point",
        "coordinates": [
          114.23919153281237,
          13.436379921650506
        ]
      }
    },
    {
      "type": "Feature",
      "properties": {
        "norad_id": 33906,
        "name": "COSMOS 2251 DEB",
        "group": "cosmos-2251-debris",
        "lat": 63.603237216727045,
        "lon": 87.30053774116996,
        "alt_km": 715.7409698453102,
        "timestamp": "2025-12-22T16:55:17.857689+00:00",
        "meta_object_name": "COSMOS 2251 DEB",
        "meta_object_id": "1993-036DK",
        "meta_epoch": "2025-12-22T03:19:15.043584",
        "meta_mean_motion": 14.57236337,
        "meta_eccentricity": 0.00369122,
        "meta_inclination": 74.0308,
        "meta_ra_of_asc_node": 303.6123,
        "meta_arg_of_pericenter": 331.6721,
        "meta_mean_anomaly": 47.5902,
        "meta_ephemeris_type": 0,
        "meta_classification_type": "U",
        "meta_norad_cat_id": 33906,
        "meta_element_set_no": 999,
        "meta_rev_at_epoch": 88145,
        "meta_bstar": 0.0018994004,
        "meta_mean_motion_dot": 8.645e-05,
        "meta_mean_motion_ddot": 0,
        "tle_line1": "1 33906U 93036DK  25356.13836856  .00008645  00000+0  18994-2 0  9998",
        "tle_line2": "2 33906  74.0308 303.6123 0036912 331.6721  47.5902 14.57236337881451"
      },
      "geometry": {
        "type": "Point",
        "coordinates": [
          87.30053774116996,
          63.603237216727045
        ]
      }
    },
    {
      "type": "Feature",
      "properties": {
        "norad_id": 33907,
        "name": "COSMOS 2251 DEB",
        "group": "cosmos-2251-debris",
        "lat": -28.921911643031702,
        "lon": -155.36734451700235,
        "alt_km": 858.0843863792561,
        "timestamp": "2025-12-22T16:55:17.857699+00:00",
        "meta_object_name": "COSMOS 2251 DEB",
        "meta_object_id": "1993-036DL",
        "meta_epoch": "2025-12-20T08:39:03.581568",
        "meta_mean_motion": 14.30568878,
        "meta_eccentricity": 0.01118938,
        "meta_inclination": 74.0693,
        "meta_ra_of_asc_node": 19.8097,
        "meta_arg_of_pericenter": 73.0053,
        "meta_mean_anomaly": 306.2172,
        "meta_ephemeris_type": 0,
        "meta_classification_type": "U",
        "meta_norad_cat_id": 33907,
        "meta_element_set_no": 999,
        "meta_rev_at_epoch": 86689,
        "meta_bstar": 0.0011890274,
        "meta_mean_motion_dot": 3.297e-05,
        "meta_mean_motion_ddot": 0,
        "tle_line1": "1 33907U 93036DL  25354.36045812  .00003297  00000+0  11890-2 0  9992",
        "tle_line2": "2 33907  74.0693  19.8097 0111893  73.0053 306.2172 14.30568878866896"
      },
      "geometry": {
        "type": "Point",
        "coordinates": [
          -155.36734451700235,
          -28.921911643031702
        ]
      }
    },
    {
      "type": "Feature",
      "properties": {
        "norad_id": 33908,
        "name": "COSMOS 2251 DEB",
        "group": "cosmos-2251-debris",
        "lat": 50.57242973382909,
        "lon": -12.572133553192728,
        "alt_km": 841.0541521987043,
        "timestamp": "2025-12-22T16:55:17.857710+00:00",
        "meta_object_name": "COSMOS 2251 DEB",
        "meta_object_id": "1993-036DM",
        "meta_epoch": "2025-12-21T13:00:35.945280",
        "meta_mean_motion": 14.0740282,
        "meta_eccentricity": 0.0222455,
        "meta_inclination": 73.8362,
        "meta_ra_of_asc_node": 190.1458,
        "meta_arg_of_pericenter": 212.033,
        "meta_mean_anomaly": 146.7127,
        "meta_ephemeris_type": 0,
        "meta_classification_type": "U",
        "meta_norad_cat_id": 33908,
        "meta_element_set_no": 999,
        "meta_rev_at_epoch": 85597,
        "meta_bstar": 0.0016138,
        "meta_mean_motion_dot": 3.376e-05,
        "meta_mean_motion_ddot": 0,
        "tle_line1": "1 33908U 93036DM  25355.54208270  .00003376  00000+0  16138-2 0  9991",
        "tle_line2": "2 33908  73.8362 190.1458 0222455 212.0330 146.7127 14.07402820855973"
      },
      "geometry": {
        "type": "Point",
        "coordinates": [
          -12.572133553192728,
          50.57242973382909
        ]
      }
    },
    {
      "type": "Feature",
      "properties": {
        "norad_id": 33911,
        "name": "COSMOS 2251 DEB",
        "group": "cosmos-2251-debris",
        "lat": 18.69174486348362,
        "lon": -43.09138769554033,
        "alt_km": 643.782109912946,
        "timestamp": "2025-12-22T16:55:17.857720+00:00",
        "meta_object_name": "COSMOS 2251 DEB",
        "meta_object_id": "1993-036DQ",
        "meta_epoch": "2025-12-21T04:38:28.888224",
        "meta_mean_motion": 14.75044552,
        "meta_eccentricity": 0.0014043,
        "meta_inclination": 74.0901,
        "meta_ra_of_asc_node": 145.3897,
        "meta_arg_of_pericenter": 79.9548,
        "meta_mean_anomaly": 336.3353,
        "meta_ephemeris_type": 0,
        "meta_classification_type": "U",
        "meta_norad_cat_id": 33911,
        "meta_element_set_no": 999,
        "meta_rev_at_epoch": 88769,
        "meta_bstar": 0.0015038,
        "meta_mean_motion_dot": 0.00010127,
        "meta_mean_motion_ddot": 0,
        "tle_line1": "1 33911U 93036DQ  25355.19338991  .00010127  00000+0  15038-2 0  9990",
        "tle_line2": "2 33911  74.0901 145.3897 0014043  79.9548 336.3353 14.75044552887692"
      },
      "geometry": {
        "type": "Point",
        "coordinates": [
          -43.09138769554033,
          18.69174486348362
        ]
      }
    },
    {
      "type": "Feature",
      "properties": {
        "norad_id": 33912,
        "name": "COSMOS 2251 DEB",
        "group": "cosmos-2251-debris",
        "lat": -55.47335276428723,
        "lon": 146.35881029746838,
        "alt_km": 720.9710738755903,
        "timestamp": "2025-12-22T16:55:17.857731+00:00",
        "meta_object_name": "COSMOS 2251 DEB",
        "meta_object_id": "1993-036DR",
        "meta_epoch": "2025-12-21T18:06:38.906208",
        "meta_mean_motion": 14.51941005,
        "meta_eccentricity": 0.00113431,
        "meta_inclination": 74.0325,
        "meta_ra_of_asc_node": 172.7426,
        "meta_arg_of_pericenter": 251.6604,
        "meta_mean_anomaly": 123.3498,
        "meta_ephemeris_type": 0,
        "meta_classification_type": "U",
        "meta_norad_cat_id": 33912,
        "meta_element_set_no": 999,
        "meta_rev_at_epoch": 88564,
        "meta_bstar": 0.00059485199,
        "meta_mean_motion_dot": 2.375e-05,
        "meta_mean_motion_ddot": 0,
        "tle_line1": "1 33912U 93036DR  25355.75461697  .00002375  00000+0  59485-3 0  9994",
        "tle_line2": "2 33912  74.0325 172.7426 0011343 251.6604 123.3498 14.51941005885647"
      },
      "geometry": {
        "type": "Point",
        "coordinates": [
          146.35881029746838,
          -55.47335276428723
        ]
      }
    }
  ]
}